0 COSMOS 1522
1 14611U 84001A   13282.17029064  .00000009  00000-0  17187-3 0  4307
2 14611 074.0076 074.7309 0020399 257.9637 213.1255 12.47000671354875
0 COSMOS 1522
1 14611U 84001A   13286.83220213 -.00000033  00000-0 -11602-3 0  4320
2 14611 074.0087 068.5615 0020396 251.1938 261.2053 12.47001173355458
0 COSMOS 1522
1 14611U 84001A   13289.54133524 -.00000031  00000-0 -10352-3 0  4339
2 14611 074.0094 064.9767 0020393 247.2955 182.9115 12.47000849355790
0 COSMOS 1522
1 14611U 84001A   13292.11724811  .00000010  00000-0  17791-3 0  4341
2 14611 074.0098 061.5686 0020389 243.6253 226.5346 12.47000667356119
0 COSMOS 1522
1 14611U 84001A   13294.51476720  .00000005  00000-0  14041-3 0  4350
2 14611 074.0100 058.3964 0020344 240.1577 189.3725 12.47000782356416
